NORAD_CAT_ID,OBJECT_NAME,OBJECT_TYPE,EPOCH,MEAN_MOTION,ECCENTRICITY,INCLINATION,RA_OF_ASC_NODE,ARG_OF_PERICENTER,MEAN_ANOMALY,BSTAR,MEAN_MOTION_DOT,MEAN_MOTION_DDOT,TLE_LINE0,TLE_LINE1,TLE_LINE2,SEMIMAJOR_AXIS,PERIOD,APOGEE,PERIGEE,DECAYED
55644.0,STARLINK-5502,PAYLOAD,2024-03-01 21:12:21,14.98338022,0.0003081,69.9988,244.7872,266.7855,93.2951,6.9177e-05,7.33e-06,0.0,0 STARLINK-5502,1 55644U 23021S   24061.88358133  .00000733  00000-0  69177-4 0  9991,2 55644  69.9988 244.7872 0003081 266.7855  93.2951 14.98338022 57977,6950.168,96.106,574.174,569.892,0.0
55644.0,STARLINK-5502,PAYLOAD,2024-03-02 14:49:50,14.98332722,0.0003004,69.9989,242.9356,266.486,93.5956,-4.2946e-05,-6.05e-06,0.0,0 STARLINK-5502,1 55644U 23021S   24062.61794521 -.00000605  00000-0 -42946-4 0  9993,2 55644  69.9989 242.9356 0003004 266.4860  93.5956 14.98332722 58388,6950.184,96.107,574.137,569.962,0.0
55644.0,STARLINK-5502,PAYLOAD,2024-03-02 19:38:14,14.98333852,0.0002965,69.9987,242.4303,266.1689,93.9131,-7.3367e-05,-9.68e-06,0.0,0 STARLINK-5502,1 55644U 23021S   24062.81822486 -.00000968  00000-0 -73367-4 0  9990,2 55644  69.9987 242.4303 0002965 266.1689  93.9131 14.98333852 58119,6950.181,96.107,574.107,569.985,0.0
55644.0,STARLINK-5502,PAYLOAD,2024-03-02 21:14:22,14.98332564,0.0002892,69.9987,242.262,263.8001,96.2829,-5.1828e-05,-7.11e-06,0.0,0 STARLINK-5502,1 55644U 23021S   24062.88498494 -.00000711  00000-0 -51828-4 0  9999,2 55644  69.9987 242.2620 0002892 263.8001  96.2829 14.98332564 58423,6950.185,96.107,574.06,570.04,0.0
55644.0,STARLINK-5502,PAYLOAD,2024-03-03 14:51:51,14.98333666,0.0003053,69.9987,240.4107,267.6043,92.4767,-3.8769e-05,-5.56e-06,0.0,0 STARLINK-5502,1 55644U 23021S   24063.61934218 -.00000556  00000-0 -38769-4 0  9996,2 55644  69.9987 240.4107 0003053 267.6043  92.4767 14.98333666 58536,6950.182,96.107,574.168,569.925,0.0
55644.0,STARLINK-5502,PAYLOAD,2024-03-03 21:16:23,14.98334884,0.0003001,69.9988,239.7373,267.7175,92.364,-3.2743e-05,-4.84e-06,0.0,0 STARLINK-5502,1 55644U 23021S   24063.88638061 -.00000484  00000-0 -32743-4 0  9998,2 55644  69.9988 239.7373 0003001 267.7175  92.3640 14.98334884 58579,6950.178,96.107,574.129,569.957,0.0
55644.0,STARLINK-5502,PAYLOAD,2024-03-04 05:17:03,14.98336134,0.0003569,70.0001,238.8944,264.5767,95.4984,3.3873e-05,3.11e-06,0.0,0 STARLINK-5502,1 55644U 23021S   24064.22017413  .00000311  00000-0  33873-4 0  9991,2 55644  70.0001 238.8944 0003569 264.5767  95.4984 14.98336134 58321,6950.174,96.107,574.519,569.558,0.0
55644.0,STARLINK-5502,PAYLOAD,2024-03-04 11:41:35,14.98318601,0.0002676,69.9993,238.2206,261.0286,99.057,0.00022295,2.567e-05,0.0,0 STARLINK-5502,1 55644U 23021S   24064.48722024  .00002567  00000-0  22295-3 0  9990,2 55644  69.9993 238.2206 0002676 261.0286  99.0570 14.98318601 58363,6950.228,96.108,573.953,570.233,0.0
55644.0,STARLINK-5502,PAYLOAD,2024-03-04 14:53:51,14.98329503,0.0002785,69.9991,237.8851,267.454,92.63,4.0128e-05,3.86e-06,0.0,0 STARLINK-5502,1 55644U 23021S   24064.62074052  .00000386  00000-0  40128-4 0  9990,2 55644  69.9991 237.8851 0002785 267.4540  92.6300 14.98329503 58684,6950.194,96.107,573.995,570.124,0.0
55644.0,STARLINK-5502,PAYLOAD,2024-03-04 21:18:24,14.98331207,0.0002865,69.9991,237.2122,265.8978,94.1853,2.0925e-05,1.57e-06,0.0,0 STARLINK-5502,1 55644U 23021S   24064.88777950  .00000157  00000-0  20925-4 0  9994,2 55644  69.9991 237.2122 0002865 265.8978  94.1853 14.98331207 58724,6950.189,96.107,574.045,570.063,0.0
55644.0,STARLINK-5502,PAYLOAD,2024-03-05 14:55:53,14.98328574,0.0002909,69.9993,235.3606,269.8458,90.2367,-3.8534e-05,-5.53e-06,0.0,0 STARLINK-5502,1 55644U 23021S   24065.62214333 -.00000553  00000-0 -38534-4 0  9995,2 55644  69.9993 235.3606 0002909 269.8458  90.2367 14.98328574 58830,6950.197,96.107,574.084,570.04,0.0
55644.0,STARLINK-5502,PAYLOAD,2024-03-05 21:20:26,14.98294054,0.0002851,69.9992,234.6877,273.1306,86.9527,0.00057259,6.739e-05,0.0,0 STARLINK-5502,1 55644U 23021S   24065.88919179  .00006739  00000-0  57259-3 0  9997,2 55644  69.9992 234.6877 0002851 273.1306  86.9527 14.98294054 58573,6950.304,96.109,574.151,570.188,0.0
55644.0,STARLINK-5502,PAYLOAD,2024-03-06 11:45:37,14.98330122,0.0002994,69.9994,233.1726,271.1038,88.9778,2.0186e-05,1.48e-06,0.0,0 STARLINK-5502,1 55644U 23021S   24066.49002074  .00000148  00000-0  20186-4 0  9990,2 55644  69.9994 233.1726 0002994 271.1038  88.9778 14.98330122 58667,6950.193,96.107,574.138,569.977,0.0
55644.0,STARLINK-5502,PAYLOAD,2024-03-06 13:21:45,14.98330364,0.0002993,69.9994,233.0043,271.108,88.9736,2.2288e-05,1.73e-06,0.0,0 STARLINK-5502,1 55644U 23021S   24066.55678051  .00000173  00000-0  22288-4 0  9994,2 55644  69.9994 233.0043 0002993 271.1080  88.9736 14.98330364 58970,6950.192,96.107,574.137,569.977,0.0
55644.0,STARLINK-5502,PAYLOAD,2024-03-07 14:59:57,14.98295512,0.0002844,69.9995,230.3113,267.9235,92.1598,-0.00029423,-3.599e-05,0.0,0 STARLINK-5502,1 55644U 23021S   24067.62497634 -.00003599  00000-0 -29423-3 0  9993,2 55644  69.9995 230.3113 0002844 267.9235  92.1598 14.98295512 59136,6950.3,96.109,574.141,570.188,0.0
55644.0,STARLINK-5502,PAYLOAD,2024-03-08 03:49:01,14.98313585,0.0002851,69.9996,228.9648,265.2232,94.8602,-0.00010704,-1.369e-05,0.0,0 STARLINK-5502,1 55644U 23021S   24068.15904886 -.00001369  00000-0 -10704-3 0  9999,2 55644  69.9996 228.9648 0002851 265.2232  94.8602 14.98313585 58910,6950.244,96.108,574.09,570.127,0.0
55644.0,STARLINK-5502,PAYLOAD,2024-03-08 11:49:40,14.9833273,0.0002573,70.0005,228.1237,263.2145,96.8721,9.1826e-05,1.003e-05,0.0,0 STARLINK-5502,1 55644U 23021S   24068.49283360  .00001003  00000-0  91826-4 0  9991,2 55644  70.0005 228.1237 0002573 263.2145  96.8721 14.98332730 58964,6950.184,96.107,573.838,570.261,0.0
55644.0,STARLINK-5502,PAYLOAD,2024-03-08 16:38:04,14.98334387,0.000256,70.0004,227.6183,264.2408,95.8459,0.00010335,1.141e-05,0.0,0 STARLINK-5502,1 55644U 23021S   24068.69311224  .00001141  00000-0  10335-3 0  9992,2 55644  70.0004 227.6183 0002560 264.2408  95.8459 14.98334387 59290,6950.179,96.107,573.824,570.265,0.0
55644.0,STARLINK-5502,PAYLOAD,2024-03-09 11:51:41,14.98327465,0.0002734,69.9994,225.5982,263.5524,96.5323,0.00047399,5.567e-05,0.0,0 STARLINK-5502,1 55644U 23021S   24069.49422455  .00005567  00000-0  47399-3 0  9996,2 55644  69.9994 225.5982 0002734 263.5524  96.5323 14.98327465 59111,6950.201,96.107,573.966,570.166,0.0
55644.0,STARLINK-5502,PAYLOAD,2024-03-09 16:40:04,14.98332062,0.0002821,69.9989,225.0929,265.6454,94.4383,0.00046113,5.414e-05,0.0,0 STARLINK-5502,1 55644U 23021S   24069.69450193  .00005414  00000-0  46113-3 0  9992,2 55644  69.9989 225.0929 0002821 265.6454  94.4383 14.98332062 59441,6950.187,96.107,574.012,570.091,0.0
55644.0,STARLINK-5502,PAYLOAD,2024-03-10 11:53:42,14.98333437,0.000284,69.9955,223.0673,259.2609,100.8231,9.9083e-05,1.089e-05,0.0,0 STARLINK-5502,1 55644U 23021S   24070.49562749  .00001089  00000-0  99083-4 0  9992,2 55644  69.9955 223.0673 0002840 259.2609 100.8231 14.98333437 59261,6950.182,96.107,574.021,570.073,0.0
55644.0,STARLINK-5502,PAYLOAD,2024-03-10 19:54:22,14.98335877,0.0002762,69.9997,222.2313,267.6411,92.4432,-0.00011087,-1.416e-05,0.0,0 STARLINK-5502,1 55644U 23021S   24070.82943044 -.00001416  00000-0 -11087-3 0  9993,2 55644  69.9997 222.2313 0002762 267.6411  92.4432 14.98335877 59614,6950.175,96.107,573.959,570.12,0.0
55644.0,STARLINK-5502,PAYLOAD,2024-03-11 11:55:42,14.9834389,0.0002715,69.9994,220.548,266.8271,93.2577,-0.00013345,-1.685e-05,0.0,0 STARLINK-5502,1 55644U 23021S   24071.49702140 -.00001685  00000-0 -13345-3 0  9994,2 55644  69.9994 220.5480 0002715 266.8271  93.2577 14.98343890 59411,6950.15,96.106,573.902,570.128,0.0
55644.0,STARLINK-5502,PAYLOAD,2024-03-12 11:57:43,14.9832788,0.0002762,69.9999,218.0238,272.4397,87.6446,4.6455e-05,4.61e-06,0.0,0 STARLINK-5502,1 55644U 23021S   24072.49842101  .00000461  00000-0  46455-4 0  9995,2 55644  69.9999 218.0238 0002762 272.4397  87.6446 14.98327880 59562,6950.199,96.107,573.984,570.145,0.0
55644.0,STARLINK-5502,PAYLOAD,2024-03-12 16:46:07,14.98329887,0.0002802,69.9998,217.5188,272.7678,87.316,3.347e-05,3.06e-06,0.0,0 STARLINK-5502,1 55644U 23021S   24072.69870019  .00000306  00000-0  33470-4 0  9997,2 55644  69.9998 217.5188 0002802 272.7678  87.3160 14.98329887 59894,6950.193,96.107,574.006,570.111,0.0
55644.0,STARLINK-5502,PAYLOAD,2024-03-13 11:59:44,14.98333882,0.000273,69.9997,215.499,272.4504,87.6342,-1.6311e-05,-2.88e-06,0.0,0 STARLINK-5502,1 55644U 23021S   24073.49981806 -.00000288  00000-0 -16311-4 0  9999,2 55644  69.9997 215.4990 0002730 272.4504  87.6342 14.98333882 59712,6950.181,96.107,573.943,570.148,0.0
55644.0,STARLINK-5502,PAYLOAD,2024-03-13 20:00:24,14.98337018,0.0002674,69.9999,214.6577,271.3881,88.6972,9.839e-06,2.4e-07,0.0,0 STARLINK-5502,1 55644U 23021S   24073.83361410  .00000024  00000-0  98390-5 0  9994,2 55644  69.9999 214.6577 0002674 271.3881  88.6972 14.98337018 60064,6950.171,96.107,573.895,570.178,0.0
55644.0,STARLINK-5502,PAYLOAD,2024-03-14 12:01:45,14.98327563,0.0002655,69.9997,212.9745,267.6609,92.4246,-3.5298e-05,-5.14e-06,0.0,0 STARLINK-5502,1 55644U 23021S   24074.50122006 -.00000514  00000-0 -35298-4 0  9998,2 55644  69.9997 212.9745 0002655 267.6609  92.4246 14.98327563 59862,6950.2,96.107,573.911,570.22,0.0
55644.0,STARLINK-5502,PAYLOAD,2024-03-14 20:02:25,14.98330816,0.0002648,69.9995,212.1325,267.7125,92.3731,-4.0792e-06,-1.42e-06,0.0,0 STARLINK-5502,1 55644U 23021S   24074.83501722 -.00000142  00000-0 -40792-5 0  9993,2 55644  69.9995 212.1325 0002648 267.7125  92.3731 14.98330816 60216,6950.19,96.107,573.896,570.215,0.0
55644.0,STARLINK-5502,PAYLOAD,2024-03-15 12:03:46,14.98331078,0.0002611,69.9999,210.4493,260.823,99.2633,-6.381e-06,-1.69e-06,0.0,0 STARLINK-5502,1 55644U 23021S   24075.50261628 -.00000169  00000-0 -63810-5 0  9991,2 55644  69.9999 210.4493 0002611 260.8230  99.2633 14.98331078 60014,6950.19,96.107,573.869,570.24,0.0
